COLIBRI-S (RS67S)       
1 61746U 24199M   26117.27301276  .00026181  00000+0  54366-3 0  9998
2 61746  97.3076 350.7259 0010894 104.3138 255.9322 15.45601482129546
HORS 3 (RS81S)          
1 61753U 24199U   26117.25758345  .00039977  00000+0  67284-3 0  9997
2 61753  97.3058 352.1991 0009282 107.2298 252.9971 15.51571829129658
HORS 4 (RS82S)          
1 61754U 24199V   26117.28892672  .00047299  00000+0  69751-3 0  9990
2 61754  97.3015 353.1462 0008512 103.5608 256.6596 15.55210596129722
HORIZON (RS59S)         
1 61757U 24199Y   26117.21693063  .00480947  91235-4  14955-2 0  9990
2 61757  97.2922 358.8200 0005381 121.3329 238.8472 15.91566587130082
ARCTICSAT 1 (RS74S)     
1 61762U 24199AD  26114.92720727  .00070579  00000+0  42412-3 0  9990
2 61762  97.2986 355.3724 0006853 100.0740 260.1300 15.77517111129659
SIT-2086                
1 61764U 24199AF  26117.24002728  .00028635  00000+0  51067-3 0  9996
2 61764  97.3039 352.8227 0008603  95.1607 265.0626 15.50008159126539
HYPERVIEW 1G (RS66S)    
1 61772U 24199AP  26117.26379009  .00103939  00000+0  10366-2 0  9993
2 61772  97.2987 354.8336 0009332 104.1305 256.0992 15.65271447126688
ALTAIR (RS65S)          
1 61779U 24199AW  26117.24999026  .00013298  00000+0  37980-3 0  9995
2 61779  97.3107 346.9548 0014642 125.1126 235.1493 15.36028710129296
ASRTU-1 (AO-123)        
1 61781U 24199AY  26117.26203499  .00009813  00000+0  29099-3 0  9992
2 61781  97.3080 346.4010 0015537 127.5784 232.6873 15.34913628126119
TUSUR GO (RS78S)        
1 61782U 24199AZ  26117.22140625  .00761943  26293-3  16765-2 0  9990
2 61782  97.2876 357.9756 0005579 141.5727 218.5949 15.98104381126894
SAMSAT-IONOSPHERE (RS7*)
1 61784U 24199BB  26117.29950988  .00047856  00000+0  75279-3 0  9990
2 61784  97.3035 352.1371 0011542 108.0876 252.1636 15.53394494129655
RTU MIREA 1 (RS51S)     
1 61785U 24199BC  26117.29211109  .00056142  00000+0  80413-3 0  9990
2 61785  97.3025 352.7374 0011545 106.2172 254.0354 15.55931083126542
TEVEL2-4                
1 63213U 25052D   26117.22621397  .00022949  00000+0  72510-3 0  9991
2 63213  97.3964  13.5890 0000721 350.5099   9.6129 15.32821412 62309
TEVEL2-5                
1 63214U 25052E   26117.24142312  .00023451  00000+0  74424-3 0  9994
2 63214  97.3961  13.5656 0000845 345.0641  15.0576 15.32675195 62308
TEVEL2-6                
1 63215U 25052F   26117.18722564  .00023701  00000+0  75308-3 0  9991
2 63215  97.3966  13.4966 0000908 345.0631  15.0584 15.32633852 62297
TEVEL2-1                
1 63217U 25052H   26117.26493153  .00022423  00000+0  72328-3 0  9990
2 63217  97.3938  13.2561 0001536   0.6568 359.4676 15.32162503 62295
