[{"OBJECT_NAME":"COLIBRI-S (RS67S)","OBJECT_ID":"2024-199M","EPOCH":"2026-04-27T06:33:08.302464","MEAN_MOTION":15.45601482,"ECCENTRICITY":0.00108946,"INCLINATION":97.3076,"RA_OF_ASC_NODE":350.7259,"ARG_OF_PERICENTER":104.3138,"MEAN_ANOMALY":255.9322,"EPHEMERIS_TYPE":0,"CLASSIFICATION_TYPE":"U","NORAD_CAT_ID":61746,"ELEMENT_SET_NO":999,"REV_AT_EPOCH":12954,"BSTAR":0.0005436614,"MEAN_MOTION_DOT":0.00026181,"MEAN_MOTION_DDOT":0},{"OBJECT_NAME":"HORS 3 (RS81S)","OBJECT_ID":"2024-199U","EPOCH":"2026-04-27T06:10:55.210080","MEAN_MOTION":15.51571829,"ECCENTRICITY":0.00092827,"INCLINATION":97.3058,"RA_OF_ASC_NODE":352.1991,"ARG_OF_PERICENTER":107.2298,"MEAN_ANOMALY":252.9971,"EPHEMERIS_TYPE":0,"CLASSIFICATION_TYPE":"U","NORAD_CAT_ID":61753,"ELEMENT_SET_NO":999,"REV_AT_EPOCH":12965,"BSTAR":0.00067284281,"MEAN_MOTION_DOT":0.00039977,"MEAN_MOTION_DDOT":0},{"OBJECT_NAME":"HORS 4 (RS82S)","OBJECT_ID":"2024-199V","EPOCH":"2026-04-27T06:56:03.268608","MEAN_MOTION":15.55210596,"ECCENTRICITY":0.00085127,"INCLINATION":97.3015,"RA_OF_ASC_NODE":353.1462,"ARG_OF_PERICENTER":103.5608,"MEAN_ANOMALY":256.6596,"EPHEMERIS_TYPE":0,"CLASSIFICATION_TYPE":"U","NORAD_CAT_ID":61754,"ELEMENT_SET_NO":999,"REV_AT_EPOCH":12972,"BSTAR":0.00069751327,"MEAN_MOTION_DOT":0.00047299,"MEAN_MOTION_DDOT":0},{"OBJECT_NAME":"HORIZON (RS59S)","OBJECT_ID":"2024-199Y","EPOCH":"2026-04-27T05:12:22.806432","MEAN_MOTION":15.91566587,"ECCENTRICITY":0.0005381,"INCLINATION":97.2922,"RA_OF_ASC_NODE":358.82,"ARG_OF_PERICENTER":121.3329,"MEAN_ANOMALY":238.8472,"EPHEMERIS_TYPE":0,"CLASSIFICATION_TYPE":"U","NORAD_CAT_ID":61757,"ELEMENT_SET_NO":999,"REV_AT_EPOCH":13008,"BSTAR":0.0014955356,"MEAN_MOTION_DOT":0.00480947,"MEAN_MOTION_DDOT":9.1235209e-5},{"OBJECT_NAME":"ARCTICSAT 1 (RS74S)","OBJECT_ID":"2024-199AD","EPOCH":"2026-04-24T22:15:10.708128","MEAN_MOTION":15.77517111,"ECCENTRICITY":0.00068537,"INCLINATION":97.2986,"RA_OF_ASC_NODE":355.3724,"ARG_OF_PERICENTER":100.074,"MEAN_ANOMALY":260.13,"EPHEMERIS_TYPE":0,"CLASSIFICATION_TYPE":"U","NORAD_CAT_ID":61762,"ELEMENT_SET_NO":999,"REV_AT_EPOCH":12965,"BSTAR":0.00042412045,"MEAN_MOTION_DOT":0.00070579,"MEAN_MOTION_DDOT":0},{"OBJECT_NAME":"SIT-2086","OBJECT_ID":"2024-199AF","EPOCH":"2026-04-27T05:45:38.356992","MEAN_MOTION":15.50008159,"ECCENTRICITY":0.00086039,"INCLINATION":97.3039,"RA_OF_ASC_NODE":352.8227,"ARG_OF_PERICENTER":95.1607,"MEAN_ANOMALY":265.0626,"EPHEMERIS_TYPE":0,"CLASSIFICATION_TYPE":"U","NORAD_CAT_ID":61764,"ELEMENT_SET_NO":999,"REV_AT_EPOCH":12653,"BSTAR":0.00051066685,"MEAN_MOTION_DOT":0.00028635,"MEAN_MOTION_DDOT":0},{"OBJECT_NAME":"HYPERVIEW 1G (RS66S)","OBJECT_ID":"2024-199AP","EPOCH":"2026-04-27T06:19:51.463776","MEAN_MOTION":15.65271447,"ECCENTRICITY":0.0009332,"INCLINATION":97.2987,"RA_OF_ASC_NODE":354.8336,"ARG_OF_PERICENTER":104.1305,"MEAN_ANOMALY":256.0992,"EPHEMERIS_TYPE":0,"CLASSIFICATION_TYPE":"U","NORAD_CAT_ID":61772,"ELEMENT_SET_NO":999,"REV_AT_EPOCH":12668,"BSTAR":0.0010366001,"MEAN_MOTION_DOT":0.00103939,"MEAN_MOTION_DDOT":0},{"OBJECT_NAME":"ALTAIR (RS65S)","OBJECT_ID":"2024-199AW","EPOCH":"2026-04-27T05:59:59.158464","MEAN_MOTION":15.3602871,"ECCENTRICITY":0.00146421,"INCLINATION":97.3107,"RA_OF_ASC_NODE":346.9548,"ARG_OF_PERICENTER":125.1126,"MEAN_ANOMALY":235.1493,"EPHEMERIS_TYPE":0,"CLASSIFICATION_TYPE":"U","NORAD_CAT_ID":61779,"ELEMENT_SET_NO":999,"REV_AT_EPOCH":12929,"BSTAR":0.00037979576,"MEAN_MOTION_DOT":0.00013298,"MEAN_MOTION_DDOT":0},{"OBJECT_NAME":"ASRTU-1 (AO-123)","OBJECT_ID":"2024-199AY","EPOCH":"2026-04-27T06:17:19.823136","MEAN_MOTION":15.34913628,"ECCENTRICITY":0.00155371,"INCLINATION":97.308,"RA_OF_ASC_NODE":346.401,"ARG_OF_PERICENTER":127.5784,"MEAN_ANOMALY":232.6873,"EPHEMERIS_TYPE":0,"CLASSIFICATION_TYPE":"U","NORAD_CAT_ID":61781,"ELEMENT_SET_NO":999,"REV_AT_EPOCH":12611,"BSTAR":0.00029098627,"MEAN_MOTION_DOT":9.813e-5,"MEAN_MOTION_DDOT":0},{"OBJECT_NAME":"TUSUR GO (RS78S)","OBJECT_ID":"2024-199AZ","EPOCH":"2026-04-27T05:18:49.500000","MEAN_MOTION":15.98104381,"ECCENTRICITY":0.00055799,"INCLINATION":97.2876,"RA_OF_ASC_NODE":357.9756,"ARG_OF_PERICENTER":141.5727,"MEAN_ANOMALY":218.5949,"EPHEMERIS_TYPE":0,"CLASSIFICATION_TYPE":"U","NORAD_CAT_ID":61782,"ELEMENT_SET_NO":999,"REV_AT_EPOCH":12689,"BSTAR":0.0016764845,"MEAN_MOTION_DOT":0.00761943,"MEAN_MOTION_DDOT":0.00026293497},{"OBJECT_NAME":"SAMSAT-IONOSPHERE (RS75S)","OBJECT_ID":"2024-199BB","EPOCH":"2026-04-27T07:11:17.653632","MEAN_MOTION":15.53394494,"ECCENTRICITY":0.00115423,"INCLINATION":97.3035,"RA_OF_ASC_NODE":352.1371,"ARG_OF_PERICENTER":108.0876,"MEAN_ANOMALY":252.1636,"EPHEMERIS_TYPE":0,"CLASSIFICATION_TYPE":"U","NORAD_CAT_ID":61784,"ELEMENT_SET_NO":999,"REV_AT_EPOCH":12965,"BSTAR":0.00075278956,"MEAN_MOTION_DOT":0.00047856,"MEAN_MOTION_DDOT":0},{"OBJECT_NAME":"RTU MIREA 1 (RS51S)","OBJECT_ID":"2024-199BC","EPOCH":"2026-04-27T07:00:38.398176","MEAN_MOTION":15.55931083,"ECCENTRICITY":0.00115454,"INCLINATION":97.3025,"RA_OF_ASC_NODE":352.7374,"ARG_OF_PERICENTER":106.2172,"MEAN_ANOMALY":254.0354,"EPHEMERIS_TYPE":0,"CLASSIFICATION_TYPE":"U","NORAD_CAT_ID":61785,"ELEMENT_SET_NO":999,"REV_AT_EPOCH":12654,"BSTAR":0.00080413156,"MEAN_MOTION_DOT":0.00056142,"MEAN_MOTION_DDOT":0},{"OBJECT_NAME":"TEVEL2-4","OBJECT_ID":"2025-052D","EPOCH":"2026-04-27T05:25:44.887008","MEAN_MOTION":15.32821412,"ECCENTRICITY":7.218e-5,"INCLINATION":97.3964,"RA_OF_ASC_NODE":13.589,"ARG_OF_PERICENTER":350.5099,"MEAN_ANOMALY":9.6129,"EPHEMERIS_TYPE":0,"CLASSIFICATION_TYPE":"U","NORAD_CAT_ID":63213,"ELEMENT_SET_NO":999,"REV_AT_EPOCH":6230,"BSTAR":0.00072510098,"MEAN_MOTION_DOT":0.00022949,"MEAN_MOTION_DDOT":0},{"OBJECT_NAME":"TEVEL2-5","OBJECT_ID":"2025-052E","EPOCH":"2026-04-27T05:47:38.957568","MEAN_MOTION":15.32675195,"ECCENTRICITY":8.456e-5,"INCLINATION":97.3961,"RA_OF_ASC_NODE":13.5656,"ARG_OF_PERICENTER":345.0641,"MEAN_ANOMALY":15.0576,"EPHEMERIS_TYPE":0,"CLASSIFICATION_TYPE":"U","NORAD_CAT_ID":63214,"ELEMENT_SET_NO":999,"REV_AT_EPOCH":6230,"BSTAR":0.00074423851,"MEAN_MOTION_DOT":0.00023451,"MEAN_MOTION_DDOT":0},{"OBJECT_NAME":"TEVEL2-6","OBJECT_ID":"2025-052F","EPOCH":"2026-04-27T04:29:36.295296","MEAN_MOTION":15.32633852,"ECCENTRICITY":9.08e-5,"INCLINATION":97.3966,"RA_OF_ASC_NODE":13.4966,"ARG_OF_PERICENTER":345.0631,"MEAN_ANOMALY":15.0584,"EPHEMERIS_TYPE":0,"CLASSIFICATION_TYPE":"U","NORAD_CAT_ID":63215,"ELEMENT_SET_NO":999,"REV_AT_EPOCH":6229,"BSTAR":0.00075307731,"MEAN_MOTION_DOT":0.00023701,"MEAN_MOTION_DDOT":0},{"OBJECT_NAME":"TEVEL2-1","OBJECT_ID":"2025-052H","EPOCH":"2026-04-27T06:21:30.084192","MEAN_MOTION":15.32162503,"ECCENTRICITY":0.00015362,"INCLINATION":97.3938,"RA_OF_ASC_NODE":13.2561,"ARG_OF_PERICENTER":0.6568,"MEAN_ANOMALY":359.4676,"EPHEMERIS_TYPE":0,"CLASSIFICATION_TYPE":"U","NORAD_CAT_ID":63217,"ELEMENT_SET_NO":999,"REV_AT_EPOCH":6229,"BSTAR":0.00072328433,"MEAN_MOTION_DOT":0.00022423,"MEAN_MOTION_DDOT":0}]
